STARLINK-31366          
1 59403U 24064F   26068.02308473 -.00003679  00000+0 -12422-3 0  9996
2 59403  42.9984  59.9515 0000169  94.4170 265.6700 15.27585402109122
HERMES-2                
1 63243U 25052AK  26068.92847372  .00009456  00000+0  34839-3 0  9999
2 63243  97.4004 324.4926 0006340  99.4160 260.7796 15.28021069 54859
